NORAD_CAT_ID,OBJECT_NAME,OBJECT_TYPE,EPOCH,MEAN_MOTION,ECCENTRICITY,INCLINATION,RA_OF_ASC_NODE,ARG_OF_PERICENTER,MEAN_ANOMALY,BSTAR,MEAN_MOTION_DOT,MEAN_MOTION_DDOT,TLE_LINE0,TLE_LINE1,TLE_LINE2,SEMIMAJOR_AXIS,PERIOD,APOGEE,PERIGEE,DECAYED
56793.0,STARLINK-6052,PAYLOAD,2023-09-07 14:00:01,15.63678018,0.0003554,69.9984,134.1187,261.7852,123.9337,-0.0099436,-0.00840219,0.0,0 STARLINK-6052,1 56793U 23078AC  23250.58334491 -.00840219  00000-0 -99436-2 0  9998,2 56793  69.9984 134.1187 0003554 261.7852 123.9337 15.63678018  5985,6755.18,92.091,379.446,374.645,0.0
56793.0,STARLINK-6052,PAYLOAD,2023-09-07 22:00:00,15.63062633,0.0003514,69.9983,133.1908,267.7437,193.4599,-0.011072,-0.0091975,0.0,0 STARLINK-6052,1 56793U 23078AC  23250.91667824 -.00919750  00000-0 -11072-1 0  9990,2 56793  69.9983 133.1908 0003514 267.7437 193.4599 15.63062633  6034,6756.953,92.127,381.193,376.444,0.0
56793.0,STARLINK-6052,PAYLOAD,2023-09-08 12:00:00,15.61886592,0.0003542,69.9981,131.5684,263.0813,238.357,-0.010766,-0.00859528,0.0,0 STARLINK-6052,1 56793U 23078AC  23251.50001157 -.00859528  00000-0 -10766-1 0  9992,2 56793  69.9981 131.5684 0003542 263.0813 238.3570 15.61886592 16038,6760.345,92.196,384.604,379.815,0.0
56793.0,STARLINK-6052,PAYLOAD,2023-09-08 14:00:01,15.61730216,0.0003551,69.9981,131.337,259.7695,350.0723,-0.010879,-0.00862973,0.0,0 STARLINK-6052,1 56793U 23078AC  23251.58334491 -.00862973  00000-0 -10879-1 0  9993,2 56793  69.9981 131.3370 0003551 259.7695 350.0723 15.61730216  6030,6760.796,92.205,385.062,380.26,0.0
56793.0,STARLINK-6052,PAYLOAD,2023-09-08 20:00:01,15.6128326,0.0003456,69.9986,130.6428,262.3551,312.4097,-0.012094,-0.00935632,0.0,0 STARLINK-6052,1 56793U 23078AC  23251.83334491 -.00935632  00000-0 -12094-1 0  9995,2 56793  69.9986 130.6428 0003456 262.3551 312.4097 15.61283260 16080,6762.086,92.232,386.288,381.614,0.0
56793.0,STARLINK-6052,PAYLOAD,2023-09-08 22:00:00,15.61106451,0.0003592,69.9984,130.4115,264.5537,58.4308,-0.011934,-0.00918654,0.0,0 STARLINK-6052,1 56793U 23078AC  23251.91667824 -.00918654  00000-0 -11934-1 0  9990,2 56793  69.9984 130.4115 0003592 264.5537  58.4308 15.61106451  6029,6762.597,92.242,386.891,382.033,0.0
56793.0,STARLINK-6052,PAYLOAD,2023-09-09 14:00:01,15.5977357,0.0003442,69.9984,128.5636,261.1658,205.764,-0.011742,-0.00863627,0.0,0 STARLINK-6052,1 56793U 23078AC  23252.58334491 -.00863627  00000-0 -11742-1 0  9991,2 56793  69.9984 128.5636 0003442 261.1658 205.7640 15.59773570  5974,6766.449,92.321,390.643,385.985,0.0
56793.0,STARLINK-6052,PAYLOAD,2023-09-10 04:00:00,15.5865446,0.0003346,69.998,126.9493,267.7424,232.5674,-0.012885,-0.00904205,0.0,0 STARLINK-6052,1 56793U 23078AC  23253.16667824 -.00904205  00000-0 -12885-1 0  9992,2 56793  69.9980 126.9493 0003346 267.7424 232.5674 15.58654460 16296,6769.687,92.387,393.817,389.287,0.0
56793.0,STARLINK-6052,PAYLOAD,2023-09-10 14:00:01,15.57815322,0.0003585,69.9983,125.798,258.7764,58.1988,-0.012601,-0.00860708,0.0,0 STARLINK-6052,1 56793U 23078AC  23253.58334491 -.00860708  00000-0 -12601-1 0  9994,2 56793  69.9983 125.7980 0003585 258.7764  58.1988 15.57815322  5742,6772.118,92.437,396.411,391.555,0.0
56793.0,STARLINK-6052,PAYLOAD,2023-09-10 20:00:01,15.57373451,0.0003547,69.9986,125.1079,261.4213,17.0196,-0.014149,-0.00942263,0.0,0 STARLINK-6052,1 56793U 23078AC  23253.83335648 -.00942263  00000-0 -14149-1 0  9993,2 56793  69.9986 125.1079 0003547 261.4213  17.0196 15.57373451 16408,6773.399,92.463,397.667,392.862,0.0
56793.0,STARLINK-6052,PAYLOAD,2023-09-11 12:00:02,15.56008636,0.0003547,69.9981,123.2699,263.9935,149.4104,-0.013252,-0.00847219,0.0,0 STARLINK-6052,1 56793U 23078AC  23254.50002315 -.00847219  00000-0 -13252-1 0  9999,2 56793  69.9981 123.2699 0003547 263.9935 149.4104 15.56008636 16507,6777.359,92.544,401.628,396.82,0.0
56793.0,STARLINK-6052,PAYLOAD,2023-09-11 14:00:01,15.55860621,0.0003402,69.9981,123.0406,262.638,257.3405,-0.013558,-0.00860743,0.0,0 STARLINK-6052,1 56793U 23078AC  23254.58334491 -.00860743  00000-0 -13558-1 0  9996,2 56793  69.9981 123.0406 0003402 262.6380 257.3405 15.55860621  5905,6777.789,92.553,401.96,397.348,0.0
56793.0,STARLINK-6052,PAYLOAD,2023-09-11 20:00:01,15.55415489,0.0003453,69.998,122.3524,267.4439,212.1782,-0.015229,-0.00942697,0.0,0 STARLINK-6052,1 56793U 23078AC  23254.83334491 -.00942697  00000-0 -15229-1 0  9990,2 56793  69.9980 122.3524 0003453 267.4439 212.1782 15.55415489 16559,6779.082,92.58,403.288,398.606,0.0
56793.0,STARLINK-6052,PAYLOAD,2023-09-12 12:00:00,15.54052064,0.0003443,69.998,120.52,261.7072,348.1831,-0.014178,-0.00843631,0.0,0 STARLINK-6052,1 56793U 23078AC  23255.50001157 -.00843631  00000-0 -14178-1 0  9995,2 56793  69.9980 120.5200 0003443 261.7072 348.1831 15.54052064 16661,6783.047,92.661,407.247,402.576,0.0
56793.0,STARLINK-6052,PAYLOAD,2023-09-12 14:00:01,15.53912329,0.0003556,69.9981,120.2913,263.1117,92.8939,-0.014788,-0.00872747,0.0,0 STARLINK-6052,1 56793U 23078AC  23255.58335648 -.00872747  00000-0 -14788-1 0  9995,2 56793  69.9981 120.2913 0003556 263.1117  92.8939 15.53912329  6020,6783.453,92.669,407.73,402.906,0.0
56793.0,STARLINK-6052,PAYLOAD,2023-09-12 20:00:01,15.53450004,0.0003339,69.998,119.6052,264.7443,49.0855,-0.016137,-0.00930517,0.0,0 STARLINK-6052,1 56793U 23078AC  23255.83334491 -.00930517  00000-0 -16137-1 0  9998,2 56793  69.9980 119.6052 0003339 264.7443  49.0855 15.53450004 16718,6784.799,92.697,408.929,404.399,0.0
56793.0,STARLINK-6052,PAYLOAD,2023-09-12 22:00:00,15.53264977,0.0003337,69.9979,119.3767,268.6126,151.0909,-0.015578,-0.00895629,0.0,0 STARLINK-6052,1 56793U 23078AC  23255.91667824 -.00895629  00000-0 -15578-1 0  9998,2 56793  69.9979 119.3767 0003337 268.6126 151.0909 15.53264977  6013,6785.338,92.708,409.467,404.939,0.0
56793.0,STARLINK-6052,PAYLOAD,2023-09-13 14:00:01,15.51919953,0.0003429,69.9977,117.5497,262.1442,282.7268,-0.014152,-0.00784352,0.0,0 STARLINK-6052,1 56793U 23078AC  23256.58334491 -.00784352  00000-0 -14152-1 0  9990,2 56793  69.9977 117.5497 0003429 262.1442 282.7268 15.51919953  5910,6789.258,92.788,413.451,408.795,0.0
56793.0,STARLINK-6052,PAYLOAD,2023-09-13 20:00:01,15.51319458,0.0003612,69.9979,116.8654,266.2116,234.8071,-0.0027788,-0.00160681,0.0,0 STARLINK-6052,1 56793U 23078AC  23256.83334491 -.00160681  00000-0 -27788-2 0  9991,2 56793  69.9979 116.8654 0003612 266.2116 234.8071 15.51319458 16866,6791.01,92.824,415.328,410.422,0.0
56793.0,STARLINK-6052,PAYLOAD,2023-09-13 22:00:00,15.51226098,0.0003522,69.998,116.6375,268.3961,337.8952,-0.00021061,-0.00012518,0.0,0 STARLINK-6052,1 56793U 23078AC  23256.91667824 -.00012518  00000-0 -21061-3 0  9993,2 56793  69.9980 116.6375 0003522 268.3961 337.8952 15.51226098  5965,6791.282,92.83,415.539,410.755,0.0
56793.0,STARLINK-6052,PAYLOAD,2023-09-14 04:00:00,15.51237489,0.0003583,69.9978,115.9538,269.1355,292.8336,-0.00054466,-0.00032045,0.0,0 STARLINK-6052,1 56793U 23078AC  23257.16667824 -.00032045  00000-0 -54466-3 0  9993,2 56793  69.9978 115.9538 0003583 269.1355 292.8336 15.51237489 16917,6791.249,92.829,415.547,410.681,0.0
56793.0,STARLINK-6052,PAYLOAD,2023-09-14 14:00:01,15.51221692,0.0003592,69.9989,114.8146,263.8119,104.3581,0.00046355,0.00027156,0.0,0 STARLINK-6052,1 56793U 23078AC  23257.58335648  .00027156  00000-0  46355-3 0  9998,2 56793  69.9989 114.8146 0003592 263.8119 104.3581 15.51221692  6031,6791.295,92.83,415.599,410.721,0.0
56793.0,STARLINK-6052,PAYLOAD,2023-09-14 20:00:01,15.51238401,0.0003597,69.9987,114.131,268.1764,55.6181,-0.00043065,-0.00025394,0.0,0 STARLINK-6052,1 56793U 23078AC  23257.83334491 -.00025394  00000-0 -43065-3 0  9990,2 56793  69.9987 114.1310 0003597 268.1764  55.6181 15.51238401 17025,6791.246,92.829,415.554,410.668,0.0
56793.0,STARLINK-6052,PAYLOAD,2023-09-14 22:00:00,15.51222183,0.0003562,69.9986,113.9032,270.1501,158.8792,0.00011223,6.432e-05,0.0,0 STARLINK-6052,1 56793U 23078AC  23257.91667824  .00006432  00000-0  11223-3 0  9999,2 56793  69.9986 113.9032 0003562 270.1501 158.8792 15.51222183  6039,6791.294,92.83,415.578,410.739,0.0
56793.0,STARLINK-6052,PAYLOAD,2023-09-15 12:00:00,15.51185583,0.0003553,69.999,112.3082,266.7039,178.9377,0.0011472,0.00067708,0.0,0 STARLINK-6052,1 56793U 23078AC  23258.50001157  .00067708  00000-0  11472-2 0  9994,2 56793  69.9990 112.3082 0003553 266.7039 178.9377 15.51185583 17125,6791.4,92.832,415.678,410.852,0.0
56793.0,STARLINK-6052,PAYLOAD,2023-09-15 14:00:01,15.51215063,0.0003536,69.9993,112.0805,265.8383,285.0166,0.00042283,0.00024742,0.0,0 STARLINK-6052,1 56793U 23078AC  23258.58334491  .00024742  00000-0  42283-3 0  9998,2 56793  69.9993 112.0805 0003536 265.8383 285.0166 15.51215063  5963,6791.314,92.83,415.581,410.778,0.0
56793.0,STARLINK-6052,PAYLOAD,2023-09-15 20:00:01,15.51311971,0.0003496,69.9993,111.3967,269.9316,236.5911,-0.0042804,-0.00244766,0.0,0 STARLINK-6052,1 56793U 23078AC  23258.83334491 -.00244766  00000-0 -42804-2 0  9996,2 56793  69.9993 111.3967 0003496 269.9316 236.5911 15.51311971 17170,6791.032,92.825,415.271,410.522,0.0
56793.0,STARLINK-6052,PAYLOAD,2023-09-16 04:00:00,15.51235203,0.0003434,69.9988,110.4853,271.234,296.2056,-0.018092,-0.00973812,0.0,0 STARLINK-6052,1 56793U 23078AC  23259.16667824 -.00973812  00000-0 -18092-1 0  9994,2 56793  69.9988 110.4853 0003434 271.2340 296.2056 15.51235203 17225,6791.256,92.829,415.453,410.788,0.0
56793.0,STARLINK-6052,PAYLOAD,2023-09-16 14:00:01,15.50387477,0.000354,69.9991,109.3467,265.6148,107.3194,-0.01732,-0.00897652,0.0,0 STARLINK-6052,1 56793U 23078AC  23259.58334491 -.00897652  00000-0 -17320-1 0  9991,2 56793  69.9991 109.3467 0003540 265.6148 107.3194 15.50387477  6029,6793.731,92.88,418.001,413.191,0.0
56793.0,STARLINK-6052,PAYLOAD,2023-09-16 20:00:01,15.49899775,0.0003553,69.999,108.6641,268.9938,58.6546,-0.01802,-0.00928725,0.0,0 STARLINK-6052,1 56793U 23078AC  23259.83334491 -.00928725  00000-0 -18020-1 0  9993,2 56793  69.9990 108.6641 0003553 268.9938  58.6546 15.49899775 17333,6795.156,92.909,419.435,414.607,0.0
